[{"OBJECT_NAME":"STARLINK-31543","OBJECT_ID":"2024-064E","EPOCH":"2026-03-09T00:53:36.177792","MEAN_MOTION":15.27577357,"ECCENTRICITY":0.00017019,"INCLINATION":43.0067,"RA_OF_ASC_NODE":60.0603,"ARG_OF_PERICENTER":288.2174,"MEAN_ANOMALY":71.8492,"EPHEMERIS_TYPE":0,"CLASSIFICATION_TYPE":"U","NORAD_CAT_ID":59402,"ELEMENT_SET_NO":999,"REV_AT_EPOCH":10912,"BSTAR":4.2599463e-5,"MEAN_MOTION_DOT":9.1e-6,"MEAN_MOTION_DDOT":0},{"OBJECT_NAME":"SL-3 R\/B","OBJECT_ID":"1982-027B","EPOCH":"2026-03-09T22:44:40.208640","MEAN_MOTION":15.28335844,"ECCENTRICITY":0.00065199,"INCLINATION":81.188,"RA_OF_ASC_NODE":37.4466,"ARG_OF_PERICENTER":276.581,"MEAN_ANOMALY":83.4683,"EPHEMERIS_TYPE":0,"CLASSIFICATION_TYPE":"U","NORAD_CAT_ID":13121,"ELEMENT_SET_NO":999,"REV_AT_EPOCH":39859,"BSTAR":0.00030526741,"MEAN_MOTION_DOT":8.453e-5,"MEAN_MOTION_DDOT":0}]
